{"type":"FeatureCollection","crs":{"type":"name","properties":{"name":"EPSG:4326"}},"features":[{"type":"Feature","id":1,"geometry":{"type":"Point","coordinates":[-73.985500000001,40.7580000000032]},"properties":{"OBJECTID":1,"character":"Avengers (team)","affiliation":"Avengers","location_name":"Avengers Tower (Stark Tower)","neighborhood":"Midtown Manhattan","latitude":40.758,"longitude":-73.9855,"continuity":"Comics & MCU (early phase)","source":"Marvel Database (marvel.fandom.com); MCU wikis","notes":"Depicted near 42nd St/Park Ave area in comics and early MCU films"}},{"type":"Feature","id":2,"geometry":{"type":"Point","coordinates":[-73.900000000001,41.2000000000032]},"properties":{"OBJECTID":2,"character":"Avengers (team)","affiliation":"Avengers","location_name":"Avengers Compound","neighborhood":"Upstate NY (not Manhattan)","latitude":41.2,"longitude":-73.9,"continuity":"MCU","source":"MCU Wiki (Fandom)","notes":"Team HQ moved upstate after Avengers: Age of Ultron (2015)"}},{"type":"Feature","id":3,"geometry":{"type":"Point","coordinates":[-74.002700000001,40.7336000000032]},"properties":{"OBJECTID":3,"character":"Doctor Strange","affiliation":"Sorcerer Supreme","location_name":"Sanctum Sanctorum","neighborhood":"Greenwich Village","latitude":40.7336,"longitude":-74.0027,"continuity":"Comics & MCU","source":"Marvel Database; Wikipedia \"Sanctum Sanctorum (Marvel Comics)\"; ScreenRant","notes":"Address 177A Bleecker St first revealed in Strange Tales #110 (1963); same address used in the MCU films"}},{"type":"Feature","id":4,"geometry":{"type":"Point","coordinates":[-73.9934000000009,40.7505000000032]},"properties":{"OBJECTID":4,"character":"Fantastic Four","affiliation":"Fantastic Four","location_name":"Baxter Building","neighborhood":"Midtown Manhattan","latitude":40.7505,"longitude":-73.9934,"continuity":"Comics (address); adapted across films","source":"Wikipedia \"Baxter Building\"; Marvel Database; Comic Vine","notes":"42nd St & Madison Ave, first appeared Fantastic Four #3 (1962); film versions vary by continuity (e.g., 2005/2007 films used a different design)"}},{"type":"Feature","id":5,"geometry":{"type":"Point","coordinates":[-73.991800000001,40.7638000000032]},"properties":{"OBJECTID":5,"character":"Daredevil (Matt Murdock)","affiliation":"Defenders","location_name":"Nelson & Murdock Law Office / Hell's Kitchen","neighborhood":"Hell's Kitchen","latitude":40.7638,"longitude":-73.9918,"continuity":"Comics & Netflix/Marvel TV","source":"Marvel Database; general franchise knowledge (Netflix's Daredevil, 2015-2018)","notes":"Hell's Kitchen has been Daredevil's home turf since his 1964 comic debut; exact office address varies by writer/show season"}},{"type":"Feature","id":6,"geometry":{"type":"Point","coordinates":[-73.946500000001,40.8116000000032]},"properties":{"OBJECTID":6,"character":"Luke Cage","affiliation":"Defenders","location_name":"Harlem's Paradise","neighborhood":"Harlem","latitude":40.8116,"longitude":-73.9465,"continuity":"Comics & Netflix/Marvel TV","source":"Marvel Database; general franchise knowledge (Netflix's Luke Cage, 2016-2018)","notes":"Nightclub HQ owned by Cornell 'Cottonmouth' Stokes, later Mariah Dillard; central Harlem setting"}},{"type":"Feature","id":7,"geometry":{"type":"Point","coordinates":[-73.997400000001,40.7590000000032]},"properties":{"OBJECTID":7,"character":"Jessica Jones","affiliation":"Defenders","location_name":"Alias Investigations","neighborhood":"Hell's Kitchen","latitude":40.759,"longitude":-73.9974,"continuity":"Comics & Netflix/Marvel TV","source":"Marvel Database; general franchise knowledge (Netflix's Jessica Jones, 2015-2019)","notes":"Approximate placement; exact address not consistently fixed across comics/show"}},{"type":"Feature","id":8,"geometry":{"type":"Point","coordinates":[-73.984000000001,40.7549000000032]},"properties":{"OBJECTID":8,"character":"Iron Fist (Danny Rand)","affiliation":"Defenders","location_name":"Rand Enterprises","neighborhood":"Midtown Manhattan","latitude":40.7549,"longitude":-73.984,"continuity":"Comics & Netflix/Marvel TV","source":"Marvel Database; general franchise knowledge (Netflix's Iron Fist, 2017-2018)","notes":"Corporate HQ near Rockefeller Center area; exact address varies"}},{"type":"Feature","id":9,"geometry":{"type":"Point","coordinates":[-73.844800000001,40.7215000000032]},"properties":{"OBJECTID":9,"character":"Spider-Man (Peter Parker)","affiliation":"Avengers (associate)","location_name":"Forest Hills / Queens","neighborhood":"Queens","latitude":40.7215,"longitude":-73.8448,"continuity":"Comics & most films","source":"Marvel Database; Wikipedia \"Peter Parker\"","notes":"Peter Parker's childhood home with Aunt May since Amazing Fantasy #15 (1962)"}},{"type":"Feature","id":10,"geometry":{"type":"Point","coordinates":[-73.984000000001,40.7549000000032]},"properties":{"OBJECTID":10,"character":"Spider-Man (Peter Parker)","affiliation":"Avengers (associate)","location_name":"Daily Bugle","neighborhood":"Midtown Manhattan","latitude":40.7549,"longitude":-73.984,"continuity":"Comics & most films","source":"Marvel Database","notes":"J. Jonah Jameson's newspaper office; approximate Midtown placement, exact address varies by era"}},{"type":"Feature","id":11,"geometry":{"type":"Point","coordinates":[-73.794900000001,41.1220000000032]},"properties":{"OBJECTID":11,"character":"X-Men","affiliation":"X-Men","location_name":"X-Mansion (Xavier's School)","neighborhood":"Westchester County NY (not Manhattan)","latitude":41.122,"longitude":-73.7949,"continuity":"Comics & films","source":"Marvel Database; Wikipedia \"Xavier Institute\"","notes":"Located in the fictional town of Salem Center, Westchester County, since X-Men #1 (1963)"}},{"type":"Feature","id":12,"geometry":{"type":"Point","coordinates":[-74.002700000001,40.7336000000032]},"properties":{"OBJECTID":12,"character":"Wolverine","affiliation":"X-Men","location_name":"Greenwich Village apartment","neighborhood":"Greenwich Village","latitude":40.7336,"longitude":-74.0027,"continuity":"Comics (varies by run)","source":"Marvel Database","notes":"Wolverine has had various NYC apartments across different comic runs; not a fixed canonical address"}},{"type":"Feature","id":13,"geometry":{"type":"Point","coordinates":[-73.991800000001,40.7638000000032]},"properties":{"OBJECTID":13,"character":"Ghost Rider (Johnny Blaze)","affiliation":"Solo","location_name":"Hell's Kitchen area","neighborhood":"Hell's Kitchen","latitude":40.7638,"longitude":-73.9918,"continuity":"General franchise association","source":"General Marvel Knights franchise association","notes":"Loosely grouped with Marvel Knights street-level heroes; not a strict canonical base"}},{"type":"Feature","id":14,"geometry":{"type":"Point","coordinates":[-74.011300000001,40.7074000000032]},"properties":{"OBJECTID":14,"character":"Iron Man (Tony Stark)","affiliation":"Avengers","location_name":"Stark Industries HQ","neighborhood":"Financial District","latitude":40.7074,"longitude":-74.0113,"continuity":"Comics & MCU (varies)","source":"General franchise knowledge","notes":"HQ location varies significantly by era/continuity; some depictions place it downtown, others in Queens or Malibu (non-NYC) in MCU films"}},{"type":"Feature","id":15,"geometry":{"type":"Point","coordinates":[-73.991800000001,40.7638000000032]},"properties":{"OBJECTID":15,"character":"Punisher (Frank Castle)","affiliation":"Solo","location_name":"Hell's Kitchen","neighborhood":"Hell's Kitchen","latitude":40.7638,"longitude":-73.9918,"continuity":"Comics & Netflix/Marvel TV","source":"Marvel Database; general franchise knowledge (Netflix's The Punisher, 2017-2019)","notes":"Operates in the same district as Daredevil; no single fixed base"}},{"type":"Feature","id":16,"geometry":{"type":"Point","coordinates":[-73.985500000001,40.7580000000032]},"properties":{"OBJECTID":16,"character":"Moon Knight","affiliation":"Solo","location_name":"Midtown Manhattan penthouse","neighborhood":"Midtown Manhattan","latitude":40.758,"longitude":-73.9855,"continuity":"Comics","source":"Marvel Database","notes":"Steven Grant's penthouse has appeared in various Midtown-area depictions across comic runs"}},{"type":"Feature","id":17,"geometry":{"type":"Point","coordinates":[-73.985500000001,40.7580000000032]},"properties":{"OBJECTID":17,"character":"Black Widow (Natasha Romanoff)","affiliation":"Avengers","location_name":"Avengers Tower","neighborhood":"Midtown Manhattan","latitude":40.758,"longitude":-73.9855,"continuity":"Comics & MCU (early phase)","source":"Marvel Database; MCU wikis","notes":"Shared Avengers HQ, same location as team entry above"}},{"type":"Feature","id":18,"geometry":{"type":"Point","coordinates":[-74.011300000001,40.7074000000032]},"properties":{"OBJECTID":18,"character":"Nick Fury","affiliation":"S.H.I.E.L.D.","location_name":"S.H.I.E.L.D. NYC Field Office","neighborhood":"Financial District","latitude":40.7074,"longitude":-74.0113,"continuity":"General franchise placeholder","source":"Not independently verified","notes":"Approximate/placeholder placement; S.H.I.E.L.D.'s main HQ is usually depicted as the Triskelion (Washington D.C. area) or a helicarrier, not a fixed Manhattan office"}},{"type":"Feature","id":19,"geometry":{"type":"Point","coordinates":[-73.991800000001,40.7638000000032]},"properties":{"OBJECTID":19,"character":"Kingpin (Wilson Fisk)","affiliation":"Villain","location_name":"Fisk Tower","neighborhood":"Hell's Kitchen","latitude":40.7638,"longitude":-73.9918,"continuity":"Comics & Netflix/Marvel TV","source":"Marvel Database; general franchise knowledge (Netflix's Daredevil)","notes":"Criminal empire base; rival to Daredevil's turf in Hell's Kitchen"}},{"type":"Feature","id":20,"geometry":{"type":"Point","coordinates":[-73.8000000000009,40.9000000000032]},"properties":{"OBJECTID":20,"character":"Sandman/Sinister Six","affiliation":"Villain","location_name":"Ravencroft Institute","neighborhood":"Westchester (fictional, near NYC)","latitude":40.9,"longitude":-73.8,"continuity":"Comics","source":"Marvel Database","notes":"Psychiatric facility for supervillains, introduced in Web of Spider-Man #79 (1991); general Westchester-area placement, not a fixed address"}}]}