{"type":"FeatureCollection","crs":{"type":"name","properties":{"name":"EPSG:4326"}},"features":[{"type":"Feature","id":1,"geometry":{"type":"Point","coordinates":[-73.985500000001,40.7580000000032]},"properties":{"OBJECTID":1,"location_name":"Avengers Tower (Stark Tower)","neighborhood":"Midtown Manhattan","latitude":40.758,"longitude":-73.9855,"continuity":"Comics & MCU (early phase)","source":"Marvel Database (marvel.fandom.com); MCU wikis","notes":"Depicted near 42nd St/Park Ave area in comics and early MCU films"}},{"type":"Feature","id":2,"geometry":{"type":"Point","coordinates":[-73.900000000001,41.2000000000032]},"properties":{"OBJECTID":2,"location_name":"Avengers Compound","neighborhood":"Upstate NY (not Manhattan)","latitude":41.2,"longitude":-73.9,"continuity":"MCU","source":"MCU Wiki (Fandom)","notes":"Team HQ moved upstate after Avengers: Age of Ultron (2015)"}},{"type":"Feature","id":3,"geometry":{"type":"Point","coordinates":[-74.002700000001,40.7336000000032]},"properties":{"OBJECTID":3,"location_name":"Sanctum Sanctorum","neighborhood":"Greenwich Village","latitude":40.7336,"longitude":-74.0027,"continuity":"Comics & MCU","source":"Marvel Database; Wikipedia \"Sanctum Sanctorum (Marvel Comics)\"; ScreenRant","notes":"Address 177A Bleecker St first revealed in Strange Tales #110 (1963); same address used in the MCU films"}},{"type":"Feature","id":4,"geometry":{"type":"Point","coordinates":[-73.9934000000009,40.7505000000032]},"properties":{"OBJECTID":4,"location_name":"Baxter Building","neighborhood":"Midtown Manhattan","latitude":40.7505,"longitude":-73.9934,"continuity":"Comics (address); adapted across films","source":"Wikipedia \"Baxter Building\"; Marvel Database; Comic Vine","notes":"42nd St & Madison Ave, first appeared Fantastic Four #3 (1962); film versions vary by continuity (e.g., 2005/2007 films used a different design)"}},{"type":"Feature","id":5,"geometry":{"type":"Point","coordinates":[-73.991800000001,40.7638000000032]},"properties":{"OBJECTID":5,"location_name":"Nelson & Murdock Law Office / Hell's Kitchen","neighborhood":"Hell's Kitchen","latitude":40.7638,"longitude":-73.9918,"continuity":"Comics & Netflix/Marvel TV","source":"Marvel Database; general franchise knowledge (Netflix's Daredevil, 2015-2018)","notes":"Hell's Kitchen has been Daredevil's home turf since his 1964 comic debut; exact office address varies by writer/show season"}},{"type":"Feature","id":6,"geometry":{"type":"Point","coordinates":[-73.946500000001,40.8116000000032]},"properties":{"OBJECTID":6,"location_name":"Harlem's Paradise","neighborhood":"Harlem","latitude":40.8116,"longitude":-73.9465,"continuity":"Comics & Netflix/Marvel TV","source":"Marvel Database; general franchise knowledge (Netflix's Luke Cage, 2016-2018)","notes":"Nightclub HQ owned by Cornell 'Cottonmouth' Stokes, later Mariah Dillard; central Harlem setting"}},{"type":"Feature","id":7,"geometry":{"type":"Point","coordinates":[-73.997400000001,40.7590000000032]},"properties":{"OBJECTID":7,"location_name":"Alias Investigations","neighborhood":"Hell's Kitchen","latitude":40.759,"longitude":-73.9974,"continuity":"Comics & Netflix/Marvel TV","source":"Marvel Database; general franchise knowledge (Netflix's Jessica Jones, 2015-2019)","notes":"Approximate placement; exact address not consistently fixed across comics/show"}},{"type":"Feature","id":8,"geometry":{"type":"Point","coordinates":[-73.984000000001,40.7549000000032]},"properties":{"OBJECTID":8,"location_name":"Rand Enterprises","neighborhood":"Midtown Manhattan","latitude":40.7549,"longitude":-73.984,"continuity":"Comics & Netflix/Marvel TV","source":"Marvel Database; general franchise knowledge (Netflix's Iron Fist, 2017-2018)","notes":"Corporate HQ near Rockefeller Center area; exact address varies"}},{"type":"Feature","id":9,"geometry":{"type":"Point","coordinates":[-73.844800000001,40.7215000000032]},"properties":{"OBJECTID":9,"location_name":"Forest Hills / Queens","neighborhood":"Queens","latitude":40.7215,"longitude":-73.8448,"continuity":"Comics & most films","source":"Marvel Database; Wikipedia \"Peter Parker\"","notes":"Peter Parker's childhood home with Aunt May since Amazing Fantasy #15 (1962)"}},{"type":"Feature","id":10,"geometry":{"type":"Point","coordinates":[-73.984000000001,40.7549000000032]},"properties":{"OBJECTID":10,"location_name":"Daily Bugle","neighborhood":"Midtown Manhattan","latitude":40.7549,"longitude":-73.984,"continuity":"Comics & most films","source":"Marvel Database","notes":"J. Jonah Jameson's newspaper office; approximate Midtown placement, exact address varies by era"}},{"type":"Feature","id":11,"geometry":{"type":"Point","coordinates":[-73.794900000001,41.1220000000032]},"properties":{"OBJECTID":11,"location_name":"X-Mansion (Xavier's School)","neighborhood":"Westchester County NY (not Manhattan)","latitude":41.122,"longitude":-73.7949,"continuity":"Comics & films","source":"Marvel Database; Wikipedia \"Xavier Institute\"","notes":"Located in the fictional town of Salem Center, Westchester County, since X-Men #1 (1963)"}},{"type":"Feature","id":12,"geometry":{"type":"Point","coordinates":[-74.002700000001,40.7336000000032]},"properties":{"OBJECTID":12,"location_name":"Greenwich Village apartment","neighborhood":"Greenwich Village","latitude":40.7336,"longitude":-74.0027,"continuity":"Comics (varies by run)","source":"Marvel Database","notes":"Wolverine has had various NYC apartments across different comic runs; not a fixed canonical address"}},{"type":"Feature","id":13,"geometry":{"type":"Point","coordinates":[-73.991800000001,40.7638000000032]},"properties":{"OBJECTID":13,"location_name":"Hell's Kitchen area","neighborhood":"Hell's Kitchen","latitude":40.7638,"longitude":-73.9918,"continuity":"General franchise association","source":"General Marvel Knights franchise association","notes":"Loosely grouped with Marvel Knights street-level heroes; not a strict canonical base"}},{"type":"Feature","id":14,"geometry":{"type":"Point","coordinates":[-74.011300000001,40.7074000000032]},"properties":{"OBJECTID":14,"location_name":"Stark Industries HQ","neighborhood":"Financial District","latitude":40.7074,"longitude":-74.0113,"continuity":"Comics & MCU (varies)","source":"General franchise knowledge","notes":"HQ location varies significantly by era/continuity; some depictions place it downtown, others in Queens or Malibu (non-NYC) in MCU films"}},{"type":"Feature","id":15,"geometry":{"type":"Point","coordinates":[-73.991800000001,40.7638000000032]},"properties":{"OBJECTID":15,"location_name":"Hell's Kitchen","neighborhood":"Hell's Kitchen","latitude":40.7638,"longitude":-73.9918,"continuity":"Comics & Netflix/Marvel TV","source":"Marvel Database; general franchise knowledge (Netflix's The Punisher, 2017-2019)","notes":"Operates in the same district as Daredevil; no single fixed base"}},{"type":"Feature","id":16,"geometry":{"type":"Point","coordinates":[-73.985500000001,40.7580000000032]},"properties":{"OBJECTID":16,"location_name":"Midtown Manhattan penthouse","neighborhood":"Midtown Manhattan","latitude":40.758,"longitude":-73.9855,"continuity":"Comics","source":"Marvel Database","notes":"Steven Grant's penthouse has appeared in various Midtown-area depictions across comic runs"}},{"type":"Feature","id":17,"geometry":{"type":"Point","coordinates":[-73.985500000001,40.7580000000032]},"properties":{"OBJECTID":17,"location_name":"Avengers Tower","neighborhood":"Midtown Manhattan","latitude":40.758,"longitude":-73.9855,"continuity":"Comics & MCU (early phase)","source":"Marvel Database; MCU wikis","notes":"Shared Avengers HQ, same location as team entry above"}},{"type":"Feature","id":18,"geometry":{"type":"Point","coordinates":[-74.011300000001,40.7074000000032]},"properties":{"OBJECTID":18,"location_name":"S.H.I.E.L.D. NYC Field Office","neighborhood":"Financial District","latitude":40.7074,"longitude":-74.0113,"continuity":"General franchise placeholder","source":"Not independently verified","notes":"Approximate/placeholder placement; S.H.I.E.L.D.'s main HQ is usually depicted as the Triskelion (Washington D.C. area) or a helicarrier, not a fixed Manhattan office"}},{"type":"Feature","id":19,"geometry":{"type":"Point","coordinates":[-73.991800000001,40.7638000000032]},"properties":{"OBJECTID":19,"location_name":"Fisk Tower","neighborhood":"Hell's Kitchen","latitude":40.7638,"longitude":-73.9918,"continuity":"Comics & Netflix/Marvel TV","source":"Marvel Database; general franchise knowledge (Netflix's Daredevil)","notes":"Criminal empire base; rival to Daredevil's turf in Hell's Kitchen"}},{"type":"Feature","id":20,"geometry":{"type":"Point","coordinates":[-73.8000000000009,40.9000000000032]},"properties":{"OBJECTID":20,"location_name":"Ravencroft Institute","neighborhood":"Westchester (fictional, near NYC)","latitude":40.9,"longitude":-73.8,"continuity":"Comics","source":"Marvel Database","notes":"Psychiatric facility for supervillains, introduced in Web of Spider-Man #79 (1991); general Westchester-area placement, not a fixed address"}},{"type":"Feature","id":21,"geometry":{"type":"Point","coordinates":[-73.984000000001,40.7549000000032]},"properties":{"OBJECTID":21,"location_name":"Alchemax","neighborhood":"Midtown Manhattan (guesstimate)","latitude":40.7549,"longitude":-73.984,"continuity":"Comics (mainly Spider-Man 2099 future NYC)","source":"Comic Vine list; Marvel Database","notes":"Futuristic megacorp tied to Spider-Man 2099; exact placement varies by era, guesstimated in Midtown"}},{"type":"Feature","id":22,"geometry":{"type":"Point","coordinates":[-73.956600000001,40.7736000000032]},"properties":{"OBJECTID":22,"location_name":"Avengers Mansion","neighborhood":"Upper East Side","latitude":40.7736,"longitude":-73.9566,"continuity":"Comics","source":"Comic Vine list; Marvel Database","notes":"Classic Avengers HQ before Avengers Tower, traditionally placed at 890 Fifth Avenue"}},{"type":"Feature","id":23,"geometry":{"type":"Point","coordinates":[-73.991800000001,40.7638000000032]},"properties":{"OBJECTID":23,"location_name":"Bar With No Name","neighborhood":"Hell's Kitchen (guesstimate)","latitude":40.7638,"longitude":-73.9918,"continuity":"Comics","source":"Comic Vine list; Marvel Database","notes":"Neutral-ground hangout bar for mercenaries and villains; exact address not fixed, guesstimated"}},{"type":"Feature","id":24,"geometry":{"type":"Point","coordinates":[-73.984000000001,40.7549000000032]},"properties":{"OBJECTID":24,"location_name":"Coffee Bean","neighborhood":"Manhattan (guesstimate)","latitude":40.7549,"longitude":-73.984,"continuity":"Comics","source":"Comic Vine list","notes":"Minor background location; specific neighborhood not well documented, general Manhattan guesstimate"}},{"type":"Feature","id":25,"geometry":{"type":"Point","coordinates":[-73.984000000001,40.7549000000032]},"properties":{"OBJECTID":25,"location_name":"Cross Technological Enterprises","neighborhood":"Midtown Manhattan (guesstimate)","latitude":40.7549,"longitude":-73.984,"continuity":"Comics","source":"Comic Vine list; Marvel Database","notes":"Corporate rival tied to Iron Man storylines; guesstimated Midtown placement"}},{"type":"Feature","id":26,"geometry":{"type":"Point","coordinates":[-73.984000000001,40.7549000000032]},"properties":{"OBJECTID":26,"location_name":"Daily Globe","neighborhood":"Midtown Manhattan (guesstimate)","latitude":40.7549,"longitude":-73.984,"continuity":"Comics","source":"Comic Vine list; Marvel Database","notes":"Rival newspaper to the Daily Bugle; guesstimated Midtown placement near other media offices"}},{"type":"Feature","id":27,"geometry":{"type":"Point","coordinates":[-73.996500000001,40.7295000000032]},"properties":{"OBJECTID":27,"location_name":"Empire State University","neighborhood":"Greenwich Village (guesstimate)","latitude":40.7295,"longitude":-73.9965,"continuity":"Comics","source":"Comic Vine list; Marvel Database","notes":"Peter Parker's fictional alma mater, modeled loosely on NYU/Columbia; guesstimated Greenwich Village area"}},{"type":"Feature","id":28,"geometry":{"type":"Point","coordinates":[-73.9776000000009,40.7659000000032]},"properties":{"OBJECTID":28,"location_name":"Four Freedoms Plaza","neighborhood":"Midtown Manhattan / Central Park South (guesstimate)","latitude":40.7659,"longitude":-73.9776,"continuity":"Comics","source":"Comic Vine list; Wikipedia","notes":"Fantastic Four's second HQ after the Baxter Building was destroyed (Fantastic Four #296, 1986); guesstimated near Central Park South"}},{"type":"Feature","id":29,"geometry":{"type":"Point","coordinates":[-73.991800000001,40.7638000000032]},"properties":{"OBJECTID":29,"location_name":"Gem Theater","neighborhood":"Hell's Kitchen (guesstimate)","latitude":40.7638,"longitude":-73.9918,"continuity":"Comics","source":"Comic Vine list","notes":"Minor Daredevil-adjacent location; guesstimated Hell's Kitchen placement"}},{"type":"Feature","id":30,"geometry":{"type":"Point","coordinates":[-73.984000000001,40.7549000000032]},"properties":{"OBJECTID":30,"location_name":"Goodman, Lieber, Kurtzberg & Holliway (Timely Plaza)","neighborhood":"Midtown Manhattan (guesstimate)","latitude":40.7549,"longitude":-73.984,"continuity":"Comics","source":"Comic Vine list; Marvel Database","notes":"Law firm recurring across many Marvel titles, named for Marvel creators; guesstimated Midtown placement"}},{"type":"Feature","id":31,"geometry":{"type":"Point","coordinates":[-73.984000000001,40.7549000000032]},"properties":{"OBJECTID":31,"location_name":"Hammer Industries (Hammer Tower)","neighborhood":"Midtown Manhattan (guesstimate)","latitude":40.7549,"longitude":-73.984,"continuity":"Comics","source":"Comic Vine list; Marvel Database","notes":"Justin Hammer's company; guesstimated Midtown corporate district placement"}},{"type":"Feature","id":32,"geometry":{"type":"Point","coordinates":[-73.946500000001,40.8116000000032]},"properties":{"OBJECTID":32,"location_name":"Harlem (general area)","neighborhood":"Harlem","latitude":40.8116,"longitude":-73.9465,"continuity":"Comics","source":"Comic Vine list","notes":"General Harlem neighborhood entry, distinct from the specific Harlem's Paradise nightclub already listed"}},{"type":"Feature","id":33,"geometry":{"type":"Point","coordinates":[-73.956600000001,40.7736000000032]},"properties":{"OBJECTID":33,"location_name":"Hellfire Club Mansion","neighborhood":"Upper East Side (guesstimate)","latitude":40.7736,"longitude":-73.9566,"continuity":"Comics","source":"Comic Vine list; Marvel Database","notes":"X-Men-adjacent secret society's NYC mansion; guesstimated Upper East Side placement"}},{"type":"Feature","id":34,"geometry":{"type":"Point","coordinates":[-73.991800000001,40.7638000000032]},"properties":{"OBJECTID":34,"location_name":"Holy Ghost Church","neighborhood":"Hell's Kitchen (guesstimate)","latitude":40.7638,"longitude":-73.9918,"continuity":"Comics","source":"Comic Vine list","notes":"Church tied to Daredevil/Matt Murdock stories; guesstimated Hell's Kitchen placement"}},{"type":"Feature","id":35,"geometry":{"type":"Point","coordinates":[-73.984000000001,40.7549000000032]},"properties":{"OBJECTID":35,"location_name":"Horizon Labs","neighborhood":"Midtown Manhattan (guesstimate)","latitude":40.7549,"longitude":-73.984,"continuity":"Comics","source":"Comic Vine list; Marvel Database","notes":"Peter Parker's employer during the 'Big Time' comic era; guesstimated Midtown placement"}},{"type":"Feature","id":36,"geometry":{"type":"Point","coordinates":[-73.991800000001,40.7638000000032]},"properties":{"OBJECTID":36,"location_name":"Josie's Bar","neighborhood":"Hell's Kitchen (guesstimate)","latitude":40.7638,"longitude":-73.9918,"continuity":"Comics","source":"Comic Vine list; Marvel Database","notes":"Neighborhood dive bar recurring in Daredevil comics; guesstimated Hell's Kitchen placement"}},{"type":"Feature","id":37,"geometry":{"type":"Point","coordinates":[-73.967500000001,40.7527000000032]},"properties":{"OBJECTID":37,"location_name":"Latverian Embassy","neighborhood":"Turtle Bay / near UN (guesstimate)","latitude":40.7527,"longitude":-73.9675,"continuity":"Comics","source":"Comic Vine list; Marvel Database","notes":"Fictional Latveria's NYC embassy; guesstimated near the real UN Headquarters district"}},{"type":"Feature","id":38,"geometry":{"type":"Point","coordinates":[-73.984000000001,40.7549000000032]},"properties":{"OBJECTID":38,"location_name":"Midtown High School","neighborhood":"Midtown Manhattan (guesstimate)","latitude":40.7549,"longitude":-73.984,"continuity":"Comics (varies; some versions place it in Queens)","source":"Comic Vine list; Marvel Database","notes":"Peter Parker's high school in many comic versions; some adaptations place it in Queens instead"}},{"type":"Feature","id":39,"geometry":{"type":"Point","coordinates":[-74.0000000000009,40.7300000000032]},"properties":{"OBJECTID":39,"location_name":"Morlock Tunnels","neighborhood":"Underground Lower Manhattan (guesstimate)","latitude":40.73,"longitude":-74,"continuity":"Comics","source":"Comic Vine list; Marvel Database","notes":"Abandoned subway/utility tunnel network beneath Manhattan, home to the Morlocks; guesstimated placement"}},{"type":"Feature","id":40,"geometry":{"type":"Point","coordinates":[-73.980000000001,40.7220000000032]},"properties":{"OBJECTID":40,"location_name":"Mutant Town (District X)","neighborhood":"Lower East Side (guesstimate)","latitude":40.722,"longitude":-73.98,"continuity":"Comics","source":"Comic Vine list; Marvel Database","notes":"Mutant-majority neighborhood in Marvel Comics, roughly analogous to the real Lower East Side/Alphabet City"}},{"type":"Feature","id":41,"geometry":{"type":"Point","coordinates":[-73.940000000001,40.8300000000032]},"properties":{"OBJECTID":41,"location_name":"Northwind Observatory","neighborhood":"Upper Manhattan (guesstimate)","latitude":40.83,"longitude":-73.94,"continuity":"Comics","source":"Comic Vine list","notes":"Minor location with limited documented detail; broad Upper Manhattan guesstimate"}},{"type":"Feature","id":42,"geometry":{"type":"Point","coordinates":[-74.011300000001,40.7074000000032]},"properties":{"OBJECTID":42,"location_name":"Oscorp Industries","neighborhood":"Financial District (guesstimate)","latitude":40.7074,"longitude":-74.0113,"continuity":"Comics & films (varies by continuity)","source":"Comic Vine list; Marvel Database","notes":"Norman Osborn's company; placement varies widely by continuity, guesstimated Financial District"}},{"type":"Feature","id":43,"geometry":{"type":"Point","coordinates":[-74.0000000000009,40.7690000000032]},"properties":{"OBJECTID":43,"location_name":"Pier Four","neighborhood":"Hell's Kitchen / West Side piers (guesstimate)","latitude":40.769,"longitude":-74,"continuity":"Comics","source":"Comic Vine list","notes":"Waterfront location tied to Hell's Kitchen crime stories; guesstimated West Side piers placement"}},{"type":"Feature","id":44,"geometry":{"type":"Point","coordinates":[-73.8000000000009,40.9000000000032]},"properties":{"OBJECTID":44,"location_name":"Ravencroft Sanitarium (Comic Vine entry)","neighborhood":"Westchester (fictional, near NYC)","latitude":40.9,"longitude":-73.8,"continuity":"Comics","source":"Comic Vine list","notes":"Same facility as the Ravencroft Institute entry already listed above; included here for cross-reference to the source list"}},{"type":"Feature","id":45,"geometry":{"type":"Point","coordinates":[-73.984000000001,40.7549000000032]},"properties":{"OBJECTID":45,"location_name":"Roxxon (One Roxxon Plaza)","neighborhood":"Midtown Manhattan (guesstimate)","latitude":40.7549,"longitude":-73.984,"continuity":"Comics","source":"Comic Vine list; Marvel Database","notes":"Fictional oil/energy conglomerate and recurring corporate villain; guesstimated Midtown placement"}},{"type":"Feature","id":46,"geometry":{"type":"Point","coordinates":[-73.878300000001,40.7885000000032]},"properties":{"OBJECTID":46,"location_name":"Ryker's Island","neighborhood":"East River / Bronx-adjacent (real-world analog: Rikers Island)","latitude":40.7885,"longitude":-73.8783,"continuity":"Comics","source":"Comic Vine list; Marvel Database","notes":"Fictional prison modeled on the real Rikers Island; coordinates given are for the real-world island it's based on"}},{"type":"Feature","id":47,"geometry":{"type":"Point","coordinates":[-73.991800000001,40.7638000000032]},"properties":{"OBJECTID":47,"location_name":"Saint Joan's Orphanage","neighborhood":"Hell's Kitchen (guesstimate)","latitude":40.7638,"longitude":-73.9918,"continuity":"Comics","source":"Comic Vine list","notes":"Orphanage tied to Daredevil/Matt Murdock backstory elements; guesstimated Hell's Kitchen placement"}},{"type":"Feature","id":48,"geometry":{"type":"Point","coordinates":[-74.003600000001,40.7357000000032]},"properties":{"OBJECTID":48,"location_name":"Saint Vincent Hospital","neighborhood":"Greenwich Village (guesstimate)","latitude":40.7357,"longitude":-74.0036,"continuity":"Comics","source":"Comic Vine list; Marvel Database","notes":"Modeled on the real St. Vincent's Hospital, which was located in Greenwich Village until closing in 2010"}},{"type":"Feature","id":49,"geometry":{"type":"Point","coordinates":[-73.991800000001,40.7638000000032]},"properties":{"OBJECTID":49,"location_name":"Sam's Barbershop","neighborhood":"Hell's Kitchen (guesstimate)","latitude":40.7638,"longitude":-73.9918,"continuity":"Comics","source":"Comic Vine list; Marvel Database","notes":"Neighborhood barbershop recurring in Daredevil comics; guesstimated Hell's Kitchen placement"}},{"type":"Feature","id":50,"geometry":{"type":"Point","coordinates":[-73.984000000001,40.7549000000032]},"properties":{"OBJECTID":50,"location_name":"The Big House","neighborhood":"Manhattan (guesstimate)","latitude":40.7549,"longitude":-73.984,"continuity":"Comics","source":"Comic Vine list","notes":"Facility with limited documented detail; broad Manhattan guesstimate"}},{"type":"Feature","id":51,"geometry":{"type":"Point","coordinates":[-73.956600000001,40.7736000000032]},"properties":{"OBJECTID":51,"location_name":"The Collegiate Academy","neighborhood":"Upper East Side (guesstimate)","latitude":40.7736,"longitude":-73.9566,"continuity":"Comics","source":"Comic Vine list","notes":"Private school location with limited documented detail; guesstimated Upper East Side placement"}},{"type":"Feature","id":52,"geometry":{"type":"Point","coordinates":[-73.997000000001,40.7680000000032]},"properties":{"OBJECTID":52,"location_name":"The Power Plant","neighborhood":"Hell's Kitchen (guesstimate)","latitude":40.768,"longitude":-73.997,"continuity":"Comics","source":"Comic Vine list","notes":"Industrial/power facility tied to Hell's Kitchen storylines; guesstimated placement"}},{"type":"Feature","id":53,"geometry":{"type":"Point","coordinates":[-73.8800000000009,40.8000000000032]},"properties":{"OBJECTID":53,"location_name":"The Raft","neighborhood":"East River island near Manhattan (guesstimate)","latitude":40.8,"longitude":-73.88,"continuity":"Comics & MCU","source":"Comic Vine list; Marvel Database","notes":"Maximum-security supervillain prison on an island in the East River; guesstimated near the real Rikers Island"}},{"type":"Feature","id":54,"geometry":{"type":"Point","coordinates":[-73.970000000001,40.7300000000032]},"properties":{"OBJECTID":54,"location_name":"Triskelion","neighborhood":"East River, off Lower Manhattan (guesstimate)","latitude":40.73,"longitude":-73.97,"continuity":"Comics (Ultimate Marvel) & some MCU media","source":"Comic Vine list; Marvel Database","notes":"S.H.I.E.L.D. HQ depicted as a floating/platform structure in the East River in Ultimate Marvel continuity; guesstimated placement"}},{"type":"Feature","id":55,"geometry":{"type":"Point","coordinates":[-73.980000000001,40.7220000000032]},"properties":{"OBJECTID":55,"location_name":"X-Factor Investigations Headquarters","neighborhood":"Lower East Side / Mutant Town (guesstimate)","latitude":40.722,"longitude":-73.98,"continuity":"Comics","source":"Comic Vine list; Marvel Database","notes":"X-Factor's detective agency HQ, historically located in or near Mutant Town in several comic runs; guesstimated placement"}}]}